[{"OBJECT_NAME":"STARLINK-34620","OBJECT_ID":"2025-150P","EPOCH":"2026-03-09T13:29:21.659136","MEAN_MOTION":14.98350238,"ECCENTRICITY":0.0003773,"INCLINATION":70.0012,"RA_OF_ASC_NODE":134.9355,"ARG_OF_PERICENTER":270.7588,"MEAN_ANOMALY":89.3139,"EPHEMERIS_TYPE":0,"CLASSIFICATION_TYPE":"U","NORAD_CAT_ID":64803,"ELEMENT_SET_NO":999,"REV_AT_EPOCH":3649,"BSTAR":0.00055824,"MEAN_MOTION_DOT":6.578e-5,"MEAN_MOTION_DDOT":0},{"OBJECT_NAME":"CZ-6A DEB","OBJECT_ID":"2024-140XA","EPOCH":"2026-03-09T13:38:46.141440","MEAN_MOTION":14.97207457,"ECCENTRICITY":0.0079782,"INCLINATION":88.8472,"RA_OF_ASC_NODE":268.9899,"ARG_OF_PERICENTER":170.4337,"MEAN_ANOMALY":189.8439,"EPHEMERIS_TYPE":0,"CLASSIFICATION_TYPE":"U","NORAD_CAT_ID":61385,"ELEMENT_SET_NO":999,"REV_AT_EPOCH":8131,"BSTAR":0.0034461,"MEAN_MOTION_DOT":0.00042743,"MEAN_MOTION_DDOT":0}]
